SENTINEL-6              
1 46984U 20086A   23251.90906875 -.00000049  00000+0  52821-4 0  9999
2 46984  66.0403  77.5638 0007846 268.3621  91.6495 12.80929589130675
